[{"OBJECT_NAME":"TIANPING 2C","OBJECT_ID":"2022-032D","EPOCH":"2026-03-09T22:24:23.522112","MEAN_MOTION":15.10225163,"ECCENTRICITY":0.00079422,"INCLINATION":97.5961,"RA_OF_ASC_NODE":122.1196,"ARG_OF_PERICENTER":128.8925,"MEAN_ANOMALY":231.3013,"EPHEMERIS_TYPE":0,"CLASSIFICATION_TYPE":"U","NORAD_CAT_ID":52156,"ELEMENT_SET_NO":999,"REV_AT_EPOCH":21586,"BSTAR":0.00036090623,"MEAN_MOTION_DOT":5.841e-5,"MEAN_MOTION_DDOT":0},{"OBJECT_NAME":"STARLINK-4112","OBJECT_ID":"2022-062AH","EPOCH":"2026-03-09T06:18:04.351104","MEAN_MOTION":15.08828528,"ECCENTRICITY":0.00012471,"INCLINATION":53.219,"RA_OF_ASC_NODE":26.0484,"ARG_OF_PERICENTER":90.2901,"MEAN_ANOMALY":269.8234,"EPHEMERIS_TYPE":0,"CLASSIFICATION_TYPE":"U","NORAD_CAT_ID":52861,"ELEMENT_SET_NO":999,"REV_AT_EPOCH":20586,"BSTAR":-5.3180629e-5,"MEAN_MOTION_DOT":-1.134e-5,"MEAN_MOTION_DDOT":0}]
